[{"OBJECT_NAME":"STARLINK-5071","OBJECT_ID":"2023-014M","EPOCH":"2026-03-09T22:55:45.567264","MEAN_MOTION":14.98335489,"ECCENTRICITY":0.00027766,"INCLINATION":69.9996,"RA_OF_ASC_NODE":63.8513,"ARG_OF_PERICENTER":270.2749,"MEAN_ANOMALY":89.8092,"EPHEMERIS_TYPE":0,"CLASSIFICATION_TYPE":"U","NORAD_CAT_ID":55402,"ELEMENT_SET_NO":999,"REV_AT_EPOCH":17209,"BSTAR":-4.8861754e-5,"MEAN_MOTION_DOT":-6.76e-6,"MEAN_MOTION_DDOT":0},{"OBJECT_NAME":"RROCI-2","OBJECT_ID":"2024-043J","EPOCH":"2026-03-09T21:40:56.693280","MEAN_MOTION":14.99383357,"ECCENTRICITY":0.00054118,"INCLINATION":97.8279,"RA_OF_ASC_NODE":200.9973,"ARG_OF_PERICENTER":337.3784,"MEAN_ANOMALY":22.7199,"EPHEMERIS_TYPE":0,"CLASSIFICATION_TYPE":"U","NORAD_CAT_ID":59106,"ELEMENT_SET_NO":999,"REV_AT_EPOCH":10988,"BSTAR":0.00035067832,"MEAN_MOTION_DOT":4.232e-5,"MEAN_MOTION_DDOT":0}]
